start=new Date('2022-05-23T00:00:00.000Z').valueOf();
sats=[{"CLASSIFICATION_TYPE":"U","PERIAPSIS":"546.138","REF_FRAME":"TEME","RCS_SIZE":"LARGE","MEAN_MOTION_DOT":"0.00002961","FILE":"3459268","REV_AT_EPOCH":"5614","TLE_LINE2":"2 48588  53.0546 238.1764 0001542  69.9919 290.1236 15.06402369 56149","COUNTRY_CODE":"US","RA_OF_ASC_NODE":"238.1764","EPHEMERIS_TYPE":"0","LAUNCH_DATE":"2021-05-15","OBJECT_TYPE":"PAYLOAD","MEAN_MOTION_DDOT":"0.0000000000000","PERIOD":"95.592","ECCENTRICITY":"0.00015420","MEAN_ELEMENT_THEORY":"SGP4","ARG_OF_PERICENTER":"69.9919","INCLINATION":"53.0546","EPOCH":"2022-05-22T16:11:14.228736","OBJECT_ID":"2021-041AM","GP_ID":"204281327","CENTER_NAME":"EARTH","SITE":"AFETR","TLE_LINE1":"1 48588U 21041AM  22142.67447024  .00002961  00000-0  21756-3 0  9998","MEAN_MOTION":"15.06402369","NORAD_CAT_ID":"48588","TIME_SYSTEM":"UTC","SEMIMAJOR_AXIS":"6925.341","ELEMENT_SET_NO":"999","DECAY_DATE":null,"APOAPSIS":"548.274","BSTAR":"0.00021756000000","MEAN_ANOMALY":"290.1236","OBJECT_NAME":"STARLINK-2244"},{"PERIAPSIS":"546.030","REF_FRAME":"TEME","CLASSIFICATION_TYPE":"U","EPHEMERIS_TYPE":"0","RA_OF_ASC_NODE":"237.8976","COUNTRY_CODE":"US","TLE_LINE2":"2 48589  53.0543 237.8976 0001678  67.3120 292.8046 15.06407091 56150","FILE":"3459268","REV_AT_EPOCH":"5615","MEAN_MOTION_DOT":"0.00003228","RCS_SIZE":"LARGE","MEAN_ELEMENT_THEORY":"SGP4","PERIOD":"95.592","MEAN_MOTION_DDOT":"0.0000000000000","ECCENTRICITY":"0.00016780","OBJECT_TYPE":"PAYLOAD","LAUNCH_DATE":"2021-05-15","EPOCH":"2022-05-22T17:41:28.034592","INCLINATION":"53.0543","ARG_OF_PERICENTER":"67.3120","CENTER_NAME":"EARTH","GP_ID":"204280582","OBJECT_ID":"2021-041AN","TLE_LINE1":"1 48589U 21041AN  22142.73713003  .00003228  00000-0  23548-3 0  9997","SITE":"AFETR","TIME_SYSTEM":"UTC","NORAD_CAT_ID":"48589","MEAN_MOTION":"15.06407091","MEAN_ANOMALY":"292.8046","OBJECT_NAME":"STARLINK-2245","DECAY_DATE":null,"BSTAR":"0.00023548000000","APOAPSIS":"548.354","ELEMENT_SET_NO":"999","SEMIMAJOR_AXIS":"6925.327"},{"INCLINATION":"53.0593","EPOCH":"2022-05-22T14:07:47.504928","ARG_OF_PERICENTER":"70.1925","MEAN_ELEMENT_THEORY":"SGP4","LAUNCH_DATE":"2021-05-15","PERIOD":"95.592","MEAN_MOTION_DDOT":"0.0000000000000","ECCENTRICITY":"0.00016150","OBJECT_TYPE":"PAYLOAD","RA_OF_ASC_NODE":"238.5571","EPHEMERIS_TYPE":"0","REV_AT_EPOCH":"5703","FILE":"3459268","MEAN_MOTION_DOT":"-0.00000771","RCS_SIZE":"LARGE","COUNTRY_CODE":"US","TLE_LINE2":"2 48591  53.0593 238.5571 0001615  70.1925 289.9238 15.06401422 57033","REF_FRAME":"TEME","PERIAPSIS":"546.091","CLASSIFICATION_TYPE":"U","MEAN_ANOMALY":"289.9238","OBJECT_NAME":"STARLINK-2248","DECAY_DATE":null,"BSTAR":"-0.00003288900000","APOAPSIS":"548.328","ELEMENT_SET_NO":"999","SEMIMAJOR_AXIS":"6925.344","NORAD_CAT_ID":"48591","TIME_SYSTEM":"UTC","MEAN_MOTION":"15.06401422","SITE":"AFETR","TLE_LINE1":"1 48591U 21041AQ  22142.58874427 -.00000771  00000-0 -32889-4 0  9992","GP_ID":"204280832","CENTER_NAME":"EARTH","OBJECT_ID":"2021-041AQ"},{"REV_AT_EPOCH":"5601","FILE":"3459268","MEAN_MOTION_DOT":"0.00001217","RCS_SIZE":"LARGE","TLE_LINE2":"2 48592  53.0537 247.9386 0001543  78.1745 281.9416 15.06398595 56011","COUNTRY_CODE":"US","RA_OF_ASC_NODE":"247.9386","EPHEMERIS_TYPE":"0","CLASSIFICATION_TYPE":"U","REF_FRAME":"TEME","PERIAPSIS":"546.149","ARG_OF_PERICENTER":"78.1745","EPOCH":"2022-05-22T17:29:31.468416","INCLINATION":"53.0537","LAUNCH_DATE":"2021-05-15","PERIOD":"95.592","ECCENTRICITY":"0.00015430","MEAN_MOTION_DDOT":"0.0000000000000","OBJECT_TYPE":"PAYLOAD","MEAN_ELEMENT_THEORY":"SGP4","SITE":"AFETR","TLE_LINE1":"1 48592U 21041AR  22142.72883644  .00001217  00000-0  10056-3 0  9995","OBJECT_ID":"2021-041AR","GP_ID":"204281580","CENTER_NAME":"EARTH","ELEMENT_SET_NO":"999","SEMIMAJOR_AXIS":"6925.353","OBJECT_NAME":"STARLINK-2249","MEAN_ANOMALY":"281.9416","BSTAR":"0.00010056000000","DECAY_DATE":null,"APOAPSIS":"548.286","MEAN_MOTION":"15.06398595","NORAD_CAT_ID":"48592","TIME_SYSTEM":"UTC"},{"EPOCH":"2022-05-22T19:15:40.862592","INCLINATION":"53.0532","ARG_OF_PERICENTER":"71.7671","MEAN_ELEMENT_THEORY":"SGP4","OBJECT_TYPE":"PAYLOAD","MEAN_MOTION_DDOT":"0.0000000000000","PERIOD":"95.592","ECCENTRICITY":"0.00015930","LAUNCH_DATE":"2021-05-15","EPHEMERIS_TYPE":"0","RA_OF_ASC_NODE":"247.6085","TLE_LINE2":"2 48593  53.0532 247.6085 0001593  71.7671 288.3491 15.06398492 56023","COUNTRY_CODE":"US","RCS_SIZE":"LARGE","FILE":"3459268","REV_AT_EPOCH":"5602","MEAN_MOTION_DOT":"0.00000390","PERIAPSIS":"546.115","REF_FRAME":"TEME","CLASSIFICATION_TYPE":"U","DECAY_DATE":null,"BSTAR":"0.00004505900000","APOAPSIS":"548.321","MEAN_ANOMALY":"288.3491","OBJECT_NAME":"STARLINK-2250","SEMIMAJOR_AXIS":"6925.353","ELEMENT_SET_NO":"999","TIME_SYSTEM":"UTC","NORAD_CAT_ID":"48593","MEAN_MOTION":"15.06398492","TLE_LINE1":"1 48593U 21041AS  22142.80255628  .00000390  00000-0  45059-4 0  9993","SITE":"AFETR","CENTER_NAME":"EARTH","GP_ID":"204281826","OBJECT_ID":"2021-041AS"},{"DECAY_DATE":null,"BSTAR":"-0.00032238000000","APOAPSIS":"548.085","OBJECT_NAME":"STARLINK-2251","MEAN_ANOMALY":"18.6971","SEMIMAJOR_AXIS":"6925.392","ELEMENT_SET_NO":"999","NORAD_CAT_ID":"48594","TIME_SYSTEM":"UTC","MEAN_MOTION":"15.06385830","SITE":"AFETR","TLE_LINE1":"1 48594U 21041AT  22142.91668981 -.00005078  00000-0 -32238-3 0  9990","GP_ID":"204280083","CENTER_NAME":"EARTH","OBJECT_ID":"2021-041AT","INCLINATION":"53.0540","EPOCH":"2022-05-22T22:00:01.999584","ARG_OF_PERICENTER":"85.6442","MEAN_ELEMENT_THEORY":"SGP4","LAUNCH_DATE":"2021-05-15","OBJECT_TYPE":"PAYLOAD","ECCENTRICITY":"0.00011960","PERIOD":"95.593","MEAN_MOTION_DDOT":"0.0000000000000","RA_OF_ASC_NODE":"217.1669","EPHEMERIS_TYPE":"0","RCS_SIZE":"LARGE","REV_AT_EPOCH":"130","FILE":"3459268","MEAN_MOTION_DOT":"-0.00005078","COUNTRY_CODE":"US","TLE_LINE2":"2 48594  53.0540 217.1669 0001196  85.6442  18.6971 15.06385830  1302","REF_FRAME":"TEME","PERIAPSIS":"546.429","CLASSIFICATION_TYPE":"U"},{"REF_FRAME":"TEME","PERIAPSIS":"546.163","CLASSIFICATION_TYPE":"U","EPHEMERIS_TYPE":"0","RA_OF_ASC_NODE":"248.2797","COUNTRY_CODE":"US","TLE_LINE2":"2 48595  53.0547 248.2797 0001496  59.7299 300.3838 15.06404866 57273","FILE":"3459268","REV_AT_EPOCH":"5727","MEAN_MOTION_DOT":"0.00000355","RCS_SIZE":"LARGE","MEAN_ELEMENT_THEORY":"SGP4","ECCENTRICITY":"0.00014960","PERIOD":"95.592","MEAN_MOTION_DDOT":"0.0000000000000","OBJECT_TYPE":"PAYLOAD","LAUNCH_DATE":"2021-05-15","INCLINATION":"53.0547","EPOCH":"2022-05-22T15:38:03.144192","ARG_OF_PERICENTER":"59.7299","CENTER_NAME":"EARTH","GP_ID":"204280333","OBJECT_ID":"2021-041AU","TLE_LINE1":"1 48595U 21041AU  22142.65142528  .00000355  00000-0  42726-4 0  9991","SITE":"AFETR","TIME_SYSTEM":"UTC","NORAD_CAT_ID":"48595","MEAN_MOTION":"15.06404866","OBJECT_NAME":"STARLINK-2252","MEAN_ANOMALY":"300.3838","DECAY_DATE":null,"APOAPSIS":"548.235","BSTAR":"0.00004272600000","ELEMENT_SET_NO":"999","SEMIMAJOR_AXIS":"6925.334"},{"MEAN_MOTION":"15.06407855","TIME_SYSTEM":"UTC","NORAD_CAT_ID":"48596","SEMIMAJOR_AXIS":"6925.324","ELEMENT_SET_NO":"999","BSTAR":"0.00016702000000","DECAY_DATE":null,"APOAPSIS":"548.313","OBJECT_NAME":"STARLINK-2253","MEAN_ANOMALY":"306.5333","OBJECT_ID":"2021-041AV","CENTER_NAME":"EARTH","GP_ID":"204281082","TLE_LINE1":"1 48596U 21041AV  22142.60719335  .00002208  00000-0  16702-3 0  9996","SITE":"AFETR","OBJECT_TYPE":"PAYLOAD","MEAN_MOTION_DDOT":"0.0000000000000","PERIOD":"95.592","ECCENTRICITY":"0.00016230","LAUNCH_DATE":"2021-05-15","MEAN_ELEMENT_THEORY":"SGP4","ARG_OF_PERICENTER":"53.5805","EPOCH":"2022-05-22T14:34:21.505440","INCLINATION":"53.0545","CLASSIFICATION_TYPE":"U","PERIAPSIS":"546.066","REF_FRAME":"TEME","TLE_LINE2":"2 48596  53.0545 248.4846 0001623  53.5805 306.5333 15.06407855 56454","COUNTRY_CODE":"US","RCS_SIZE":"LARGE","REV_AT_EPOCH":"5645","FILE":"3459268","MEAN_MOTION_DOT":"0.00002208","EPHEMERIS_TYPE":"0","RA_OF_ASC_NODE":"248.4846"},{"SITE":"AFETR","TLE_LINE1":"1 48597U 21041AW  22142.61457790  .00001278  00000-0  10467-3 0  9990","OBJECT_ID":"2021-041AW","GP_ID":"204281328","CENTER_NAME":"EARTH","SEMIMAJOR_AXIS":"6925.370","ELEMENT_SET_NO":"999","DECAY_DATE":null,"BSTAR":"0.00010467000000","APOAPSIS":"548.346","OBJECT_NAME":"STARLINK-2255","MEAN_ANOMALY":"278.0507","MEAN_MOTION":"15.06392877","NORAD_CAT_ID":"48597","TIME_SYSTEM":"UTC","RCS_SIZE":"LARGE","FILE":"3459268","REV_AT_EPOCH":"5726","MEAN_MOTION_DOT":"0.00001278","COUNTRY_CODE":"US","TLE_LINE2":"2 48597  53.0544 248.4518 0001603  82.0664 278.0507 15.06392877 57261","RA_OF_ASC_NODE":"248.4518","EPHEMERIS_TYPE":"0","CLASSIFICATION_TYPE":"U","PERIAPSIS":"546.125","REF_FRAME":"TEME","ARG_OF_PERICENTER":"82.0664","INCLINATION":"53.0544","EPOCH":"2022-05-22T14:44:59.530560","LAUNCH_DATE":"2021-05-15","OBJECT_TYPE":"PAYLOAD","ECCENTRICITY":"0.00016030","PERIOD":"95.593","MEAN_MOTION_DDOT":"0.0000000000000","MEAN_ELEMENT_THEORY":"SGP4"},{"SEMIMAJOR_AXIS":"6925.352","ELEMENT_SET_NO":"999","DECAY_DATE":null,"BSTAR":"0.00018594000000","APOAPSIS":"548.213","OBJECT_NAME":"STARLINK-2256","MEAN_ANOMALY":"292.6322","MEAN_MOTION":"15.06398792","TIME_SYSTEM":"UTC","NORAD_CAT_ID":"48598","TLE_LINE1":"1 48598U 21041AX  22142.61826023  .00002489  00000-0  18594-3 0  9994","SITE":"AFETR","OBJECT_ID":"2021-041AX","CENTER_NAME":"EARTH","GP_ID":"204280583","ARG_OF_PERICENTER":"67.4819","INCLINATION":"53.0558","EPOCH":"2022-05-22T14:50:17.683872","OBJECT_TYPE":"PAYLOAD","ECCENTRICITY":"0.00014380","PERIOD":"95.592","MEAN_MOTION_DDOT":"0.0000000000000","LAUNCH_DATE":"2021-05-15","MEAN_ELEMENT_THEORY":"SGP4","TLE_LINE2":"2 48598  53.0558 248.4257 0001438  67.4819 292.6322 15.06398792 56451","COUNTRY_CODE":"US","RCS_SIZE":"LARGE","MEAN_MOTION_DOT":"0.00002489","FILE":"3459268","REV_AT_EPOCH":"5645","EPHEMERIS_TYPE":"0","RA_OF_ASC_NODE":"248.4257","CLASSIFICATION_TYPE":"U","REF_FRAME":"TEME","PERIAPSIS":"546.221"}];
